CCSDS_OMM_VERS = 2.0
CREATION_DATE  = 
ORIGINATOR     = 

OBJECT_NAME    = STARLINK-35926
OBJECT_ID      = 2025-271AB
CENTER_NAME    = EARTH
REF_FRAME      = TEME
TIME_SYSTEM    = UTC
MEAN_ELEMENT_THEORY = SGP/SGP4

EPOCH          = 2025-12-19T07:04:32.016864
MEAN_MOTION    = 15.49313638
ECCENTRICITY   = .0001869
INCLINATION    = 53.1588
RA_OF_ASC_NODE = 155.7852
ARG_OF_PERICENTER = 68.4710
MEAN_ANOMALY   = 291.6499

EPHEMERIS_TYPE = 0
CLASSIFICATION_TYPE = U
NORAD_CAT_ID   = 66642
ELEMENT_SET_NO = 999
REV_AT_EPOCH   = 518
BSTAR          = .10278E-2
MEAN_MOTION_DOT = .57146E-3
MEAN_MOTION_DDOT = 0

CCSDS_OMM_VERS = 2.0
CREATION_DATE  = 
ORIGINATOR     = 

OBJECT_NAME    = STARLINK-35918
OBJECT_ID      = 2025-271AC
CENTER_NAME    = EARTH
REF_FRAME      = TEME
TIME_SYSTEM    = UTC
MEAN_ELEMENT_THEORY = SGP/SGP4

EPOCH          = 2025-12-18T20:15:17.256672
MEAN_MOTION    = 15.49355287
ECCENTRICITY   = .00012817
INCLINATION    = 53.1592
RA_OF_ASC_NODE = 157.9495
ARG_OF_PERICENTER = 86.0423
MEAN_ANOMALY   = 274.0733

EPHEMERIS_TYPE = 0
CLASSIFICATION_TYPE = U
NORAD_CAT_ID   = 66643
ELEMENT_SET_NO = 999
REV_AT_EPOCH   = 515
BSTAR          = .5250722E-3
MEAN_MOTION_DOT = .2891E-3
MEAN_MOTION_DDOT = 0

CCSDS_OMM_VERS = 2.0
CREATION_DATE  = 
ORIGINATOR     = 

OBJECT_NAME    = STARLINK-35938
OBJECT_ID      = 2025-271AD
CENTER_NAME    = EARTH
REF_FRAME      = TEME
TIME_SYSTEM    = UTC
MEAN_ELEMENT_THEORY = SGP/SGP4

EPOCH          = 2025-12-18T20:14:46.464576
MEAN_MOTION    = 15.49333178
ECCENTRICITY   = .00005997
INCLINATION    = 53.1591
RA_OF_ASC_NODE = 157.9473
ARG_OF_PERICENTER = 93.6054
MEAN_ANOMALY   = 266.5024

EPHEMERIS_TYPE = 0
CLASSIFICATION_TYPE = U
NORAD_CAT_ID   = 66644
ELEMENT_SET_NO = 999
REV_AT_EPOCH   = 515
BSTAR          = .13201346E-2
MEAN_MOTION_DOT = .73731E-3
MEAN_MOTION_DDOT = 0

CCSDS_OMM_VERS = 2.0
CREATION_DATE  = 
ORIGINATOR     = 

OBJECT_NAME    = SHENZHOU-22
OBJECT_ID      = 2025-272A
CENTER_NAME    = EARTH
REF_FRAME      = TEME
TIME_SYSTEM    = UTC
MEAN_ELEMENT_THEORY = SGP/SGP4

EPOCH          = 2025-12-19T22:50:46.623264
MEAN_MOTION    = 15.59484120
ECCENTRICITY   = .00077419
INCLINATION    = 41.4684
RA_OF_ASC_NODE = 332.9127
ARG_OF_PERICENTER = 94.7688
MEAN_ANOMALY   = 265.4034

EPHEMERIS_TYPE = 0
CLASSIFICATION_TYPE = U
NORAD_CAT_ID   = 66645
ELEMENT_SET_NO = 999
REV_AT_EPOCH   = 26357
BSTAR          = .2198914E-3
MEAN_MOTION_DOT = .17657E-3
MEAN_MOTION_DDOT = 0

CCSDS_OMM_VERS = 2.0
CREATION_DATE  = 
ORIGINATOR     = 

OBJECT_NAME    = COSMOS 2597 (RODNIK-S 22)
OBJECT_ID      = 2025-273A
CENTER_NAME    = EARTH
REF_FRAME      = TEME
TIME_SYSTEM    = UTC
MEAN_ELEMENT_THEORY = SGP/SGP4

EPOCH          = 2025-12-19T21:14:23.772768
MEAN_MOTION    = 12.41952010
ECCENTRICITY   = .00076306
INCLINATION    = 82.4993
RA_OF_ASC_NODE = 282.0122
ARG_OF_PERICENTER = 269.7570
MEAN_ANOMALY   = 90.2634

EPHEMERIS_TYPE = 0
CLASSIFICATION_TYPE = U
NORAD_CAT_ID   = 66647
ELEMENT_SET_NO = 999
REV_AT_EPOCH   = 302
BSTAR          = -.22308371E-4
MEAN_MOTION_DOT = .7E-7
MEAN_MOTION_DDOT = 0

CCSDS_OMM_VERS = 2.0
CREATION_DATE  = 
ORIGINATOR     = 

OBJECT_NAME    = COSMOS 2598 (RODNIK-S 23)
OBJECT_ID      = 2025-273B
CENTER_NAME    = EARTH
REF_FRAME      = TEME
TIME_SYSTEM    = UTC
MEAN_ELEMENT_THEORY = SGP/SGP4

EPOCH          = 2025-12-19T20:52:18.706944
MEAN_MOTION    = 12.43233465
ECCENTRICITY   = .00080805
INCLINATION    = 82.5032
RA_OF_ASC_NODE = 282.0139
ARG_OF_PERICENTER = 219.8286
MEAN_ANOMALY   = 140.2201

EPHEMERIS_TYPE = 0
CLASSIFICATION_TYPE = U
NORAD_CAT_ID   = 66648
ELEMENT_SET_NO = 999
REV_AT_EPOCH   = 302
BSTAR          = .11206118E-4
MEAN_MOTION_DOT = .11E-6
MEAN_MOTION_DDOT = 0

CCSDS_OMM_VERS = 2.0
CREATION_DATE  = 
ORIGINATOR     = 

OBJECT_NAME    = COSMOS 2599 (RODNIK-S 24)
OBJECT_ID      = 2025-273C
CENTER_NAME    = EARTH
REF_FRAME      = TEME
TIME_SYSTEM    = UTC
MEAN_ELEMENT_THEORY = SGP/SGP4

EPOCH          = 2025-12-19T21:27:02.970432
MEAN_MOTION    = 12.41150987
ECCENTRICITY   = .00062918
INCLINATION    = 82.5043
RA_OF_ASC_NODE = 282.0346
ARG_OF_PERICENTER = 260.9571
MEAN_ANOMALY   = 99.0796

EPHEMERIS_TYPE = 0
CLASSIFICATION_TYPE = U
NORAD_CAT_ID   = 66649
ELEMENT_SET_NO = 999
REV_AT_EPOCH   = 302
BSTAR          = -.41076931E-4
MEAN_MOTION_DOT = .4E-7
MEAN_MOTION_DDOT = 0

CCSDS_OMM_VERS = 2.0
CREATION_DATE  = 
ORIGINATOR     = 

OBJECT_NAME    = BEE-1000
OBJECT_ID      = 2025-274A
CENTER_NAME    = EARTH
REF_FRAME      = TEME
TIME_SYSTEM    = UTC
MEAN_ELEMENT_THEORY = SGP/SGP4

EPOCH          = 2025-12-19T12:39:39.418848
MEAN_MOTION    = 14.91682536
ECCENTRICITY   = .0010694
INCLINATION    = 97.7401
RA_OF_ASC_NODE = 280.5907
ARG_OF_PERICENTER = 226.1332
MEAN_ANOMALY   = 133.9004

EPHEMERIS_TYPE = 0
CLASSIFICATION_TYPE = U
NORAD_CAT_ID   = 66650
ELEMENT_SET_NO = 999
REV_AT_EPOCH   = 341
BSTAR          = .10224E-3
MEAN_MOTION_DOT = .973E-5
MEAN_MOTION_DDOT = 0

CCSDS_OMM_VERS = 2.0
CREATION_DATE  = 
ORIGINATOR     = 

OBJECT_NAME    = 2025-274B
OBJECT_ID      = 2025-274B
CENTER_NAME    = EARTH
REF_FRAME      = TEME
TIME_SYSTEM    = UTC
MEAN_ELEMENT_THEORY = SGP/SGP4

EPOCH          = 2025-12-19T17:27:05.534496
MEAN_MOTION    = 14.91843292
ECCENTRICITY   = .00109832
INCLINATION    = 97.7395
RA_OF_ASC_NODE = 280.7887
ARG_OF_PERICENTER = 224.4236
MEAN_ANOMALY   = 135.6103

EPHEMERIS_TYPE = 0
CLASSIFICATION_TYPE = U
NORAD_CAT_ID   = 66651
ELEMENT_SET_NO = 999
REV_AT_EPOCH   = 344
BSTAR          = .22038196E-3
MEAN_MOTION_DOT = .2171E-4
MEAN_MOTION_DDOT = 0

CCSDS_OMM_VERS = 2.0
CREATION_DATE  = 
ORIGINATOR     = 

OBJECT_NAME    = 2025-274C
OBJECT_ID      = 2025-274C
CENTER_NAME    = EARTH
REF_FRAME      = TEME
TIME_SYSTEM    = UTC
MEAN_ELEMENT_THEORY = SGP/SGP4

EPOCH          = 2025-12-19T17:24:22.187520
MEAN_MOTION    = 14.91937135
ECCENTRICITY   = .00105554
INCLINATION    = 97.7400
RA_OF_ASC_NODE = 280.7926
ARG_OF_PERICENTER = 231.3953
MEAN_ANOMALY   = 128.6322

EPHEMERIS_TYPE = 0
CLASSIFICATION_TYPE = U
NORAD_CAT_ID   = 66652
ELEMENT_SET_NO = 999
REV_AT_EPOCH   = 344
BSTAR          = .17453716E-3
MEAN_MOTION_DOT = .1712E-4
MEAN_MOTION_DDOT = 0

CCSDS_OMM_VERS = 2.0
CREATION_DATE  = 
ORIGINATOR     = 

OBJECT_NAME    = 2025-274D
OBJECT_ID      = 2025-274D
CENTER_NAME    = EARTH
REF_FRAME      = TEME
TIME_SYSTEM    = UTC
MEAN_ELEMENT_THEORY = SGP/SGP4

EPOCH          = 2025-12-19T20:37:24.271680
MEAN_MOTION    = 14.91936864
ECCENTRICITY   = .00114945
INCLINATION    = 97.7399
RA_OF_ASC_NODE = 280.9241
ARG_OF_PERICENTER = 227.1082
MEAN_ANOMALY   = 132.9172

EPHEMERIS_TYPE = 0
CLASSIFICATION_TYPE = U
NORAD_CAT_ID   = 66653
ELEMENT_SET_NO = 999
REV_AT_EPOCH   = 346
BSTAR          = .14548473E-3
MEAN_MOTION_DOT = .1418E-4
MEAN_MOTION_DDOT = 0

CCSDS_OMM_VERS = 2.0
CREATION_DATE  = 
ORIGINATOR     = 

OBJECT_NAME    = JACK E
OBJECT_ID      = 2025-274E
CENTER_NAME    = EARTH
REF_FRAME      = TEME
TIME_SYSTEM    = UTC
MEAN_ELEMENT_THEORY = SGP/SGP4

EPOCH          = 2025-12-19T20:33:34.388064
MEAN_MOTION    = 14.92117883
ECCENTRICITY   = .00120692
INCLINATION    = 97.7403
RA_OF_ASC_NODE = 280.9282
ARG_OF_PERICENTER = 229.0412
MEAN_ANOMALY   = 130.9763

EPHEMERIS_TYPE = 0
CLASSIFICATION_TYPE = U
NORAD_CAT_ID   = 66654
ELEMENT_SET_NO = 999
REV_AT_EPOCH   = 346
BSTAR          = .14560655E-3
MEAN_MOTION_DOT = .1426E-4
MEAN_MOTION_DDOT = 0

CCSDS_OMM_VERS = 2.0
CREATION_DATE  = 
ORIGINATOR     = 

OBJECT_NAME    = 2025-274F
OBJECT_ID      = 2025-274F
CENTER_NAME    = EARTH
REF_FRAME      = TEME
TIME_SYSTEM    = UTC
MEAN_ELEMENT_THEORY = SGP/SGP4

EPOCH          = 2025-12-19T20:39:09.808416
MEAN_MOTION    = 14.91177816
ECCENTRICITY   = .00049637
INCLINATION    = 97.7331
RA_OF_ASC_NODE = 280.9182
ARG_OF_PERICENTER = 359.7459
MEAN_ANOMALY   = 0.3756

EPHEMERIS_TYPE = 0
CLASSIFICATION_TYPE = U
NORAD_CAT_ID   = 66655
ELEMENT_SET_NO = 999
REV_AT_EPOCH   = 346
BSTAR          = -.2756834E-5
MEAN_MOTION_DOT = -.82E-6
MEAN_MOTION_DDOT = 0

CCSDS_OMM_VERS = 2.0
CREATION_DATE  = 
ORIGINATOR     = 

OBJECT_NAME    = 2025-274G
OBJECT_ID      = 2025-274G
CENTER_NAME    = EARTH
REF_FRAME      = TEME
TIME_SYSTEM    = UTC
MEAN_ELEMENT_THEORY = SGP/SGP4

EPOCH          = 2025-12-19T20:29:23.863488
MEAN_MOTION    = 14.92312609
ECCENTRICITY   = .00126249
INCLINATION    = 97.7401
RA_OF_ASC_NODE = 280.9313
ARG_OF_PERICENTER = 230.8123
MEAN_ANOMALY   = 129.1976

EPHEMERIS_TYPE = 0
CLASSIFICATION_TYPE = U
NORAD_CAT_ID   = 66656
ELEMENT_SET_NO = 999
REV_AT_EPOCH   = 346
BSTAR          = .1541325E-3
MEAN_MOTION_DOT = .152E-4
MEAN_MOTION_DDOT = 0

CCSDS_OMM_VERS = 2.0
CREATION_DATE  = 
ORIGINATOR     = 

OBJECT_NAME    = SPIRONE
OBJECT_ID      = 2025-274H
CENTER_NAME    = EARTH
REF_FRAME      = TEME
TIME_SYSTEM    = UTC
MEAN_ELEMENT_THEORY = SGP/SGP4

EPOCH          = 2025-12-19T17:12:18.686880
MEAN_MOTION    = 14.92491265
ECCENTRICITY   = .00107624
INCLINATION    = 97.7400
RA_OF_ASC_NODE = 280.8026
ARG_OF_PERICENTER = 249.6730
MEAN_ANOMALY   = 110.3333

EPHEMERIS_TYPE = 0
CLASSIFICATION_TYPE = U
NORAD_CAT_ID   = 66657
ELEMENT_SET_NO = 999
REV_AT_EPOCH   = 344
BSTAR          = .1484092E-3
MEAN_MOTION_DOT = .1468E-4
MEAN_MOTION_DDOT = 0

